Satellite: ISS
Catalog number: 25544
Epoch time:      11168.09994693
Element set:     549
Inclination:      051.6453 deg
RA of node:       161.1888 deg
Eccentricity:    0.0013916
Arg of perigee:   293.6664 deg
Mean anomaly:     149.7962 deg
Mean motion:   15.64386723 rev/day
Decay rate:     -7.392e-05 rev/day^2
Epoch rev:           72089
Checksum:              356

/EX



From ray.hoad at mypbmail.com  Thu Jun 16 20:46:56 2011
From: ray.hoad at mypbmail.com (Ray Hoad)
Date: Thu, 16 Jun 2011 22:46:56 -0500
Subject: [keps]  orb11167.2l.amsat
Message-ID: <E240F274DBDC4E63AA75E6EEB305E5C0@SPINMOD1>

SB KEPS @ AMSAT  $ORB11167.N
2Line Orbital Elements 11167.AMSAT

HR AMSAT ORBITAL ELEMENTS FOR AMATEUR SATELLITES IN NASA FORMAT
FROM WA5QGD FORT WORTH,TX June 16, 2011
Send Subscribe/unsubscribe to KEPS at http://www.amsat.org/mailman/listinfo/keps
BID: ORB11167.N

DECODE 2-LINE ELSETS WITH THE FOLLOWING KEY:
1 AAAAAU 00  0  0 BBBBB.BBBBBBBB  .CCCCCCCC  00000-0  00000-0 0  DDDZ
2 AAAAA EEE.EEEE FFF.FFFF GGGGGGG HHH.HHHH III.IIII JJ.JJJJJJJJKKKKKZ
KEY: A-CATALOGNUM B-EPOCHTIME C-DECAY D-ELSETNUM E-INCLINATION F-RAAN
G-ECCENTRICITY H-ARGPERIGEE I-MNANOM J-MNMOTION K-ORBITNUM Z-CHECKSUM

TO ALL RADIO AMATEURS BT

FO-29
1 24278U 96046B   11166.42788216  .00000100  00000-0  14089-3 0  5960
2 24278 098.5430 310.7884 0349589 261.7692 094.3668 13.52962444732228
SO-33
1 25509U 98061B   11166.62634033  .00000308  00000-0  46833-4 0 09907
2 25509 031.4347 253.1448 0354280 227.9976 128.9947 14.28415695660058
AO-07
1 07530U 74089B   11167.03879067 -.00000027  00000-0  10000-3 0  1041
2 07530 101.3913 173.6251 0011643 282.7758 077.2019 12.53582711674046
VO-52
1 28650U 05017B   11167.68993629  .00000656  00000-0  88352-4 0  8224
2 28650 097.6407 210.8432 0026930 160.5269 199.7003 14.82086480330674
RS-22
1 27939U 03042A   11167.74437911  .00000162  00000-0  39744-4 0  3591
2 27939 097.8476 021.7646 0013489 352.1722 007.9269 14.63597270412279
HO-68
1 36122U 09072B   11167.85862867 -.00000044  00000-0  00000 0 0  4744
2 36122 100.4152 228.6751 0007255 224.3312 135.7210 13.16286727 72197
SO-67
1 35870U 09049F   11167.95305606  .00001430  00000-0  67886-4 0  9419
2 35870 097.2812 211.3205 0003568 048.7124 035.2249 15.20795513 96903
GO-32
1 25397U 98043D   11166.50604404  .00000156  00000-0  86809-4 0 05047
2 25397 098.3245 159.1574 0000421 325.6564 034.4582 14.23211747671720
CO-55
1 27844U 03031E   11166.55717514  .00000138  00000-0  83928-4 0 01327
2 27844 098.7053 175.2814 0009181 199.6094 160.4753 14.20817002412686
UO-11
1 14781U 84021B   11166.71918911  .00000180  00000-0  30854-4 0  5751
2 14781 098.0064 223.4352 0009665 137.5923 222.6035 14.79983879465579
STUDSAT
1 36801U 10035G   11166.72580930  .00001806  00000-0  24184-3 0 01984
2 36801 098.1066 234.8291 0012453 272.3348 087.6425 14.80672053050084
AO-27
1 22825U 93061C   11166.89029633 -.00000054  00000-0 -43344-5 0  8424
2 22825 098.5315 111.3717 0007551 280.4623 079.5700 14.29350624924005
SO-50
1 27607U 02058C   11166.91027570  .00000153  00000-0  45474-4 0  4917
2 27607 064.5587 331.5544 0072228 321.4571 038.1400 14.71758622455900
AO-51
1 28375U 04025K   11166.93042308  .00000084  00000-0  37586-4 0  9962
2 28375 098.0979 145.4420 0084972 073.6596 287.3920 14.40761713365880
CP3
1 31129U 07012N   11167.04710147  .00000475  00000-0  11912-3 0  8943
2 31129 097.8979 191.3280 0102515 183.4584 176.5963 14.52497529220670
NO-44
1 26931U 01043C   11167.13167015  .00000294  00000-0  14674-3 0  7773
2 26931 067.0532 346.2472 0006727 255.9839 104.0500 14.29665478506774
CO-65
1 32785U 08021C   11167.20051534  .00000271  00000-0  40756-4 0   179
2 32785 097.8501 231.1133 0014907 175.0307 185.1123 14.82018069169393
IO-26
1 22826U 93061D   11167.37990508  .00000035  00000-0  30517-4 0  5866
2 22826 098.5238 112.3253 0007904 273.7327 086.2949 14.29613317924195
CO-57
1 27848U 03031J   11167.55681636  .00000103  00000-0  68348-4 0   822
2 27848 098.7117 175.4554 0008922 200.5373 159.5452 14.20596095412779
PRISM
1 33493U 09002B   11167.89004526  .00000953  00000-0  12757-3 0  6846
2 33493 098.1247 296.4963 0020690 045.2510 315.0354 14.81733892129478
LO-19
1 20442U 90005G   11167.89194940  .00000069  00000-0  41055-4 0  1251
2 20442 098.3467 121.8733 0012100 153.4718 206.7084 14.32150249117758
SOHLA-1
1 33496U 09002E   11167.91402086  .00000072  00000-0  20427-4 0  4399
2 33496 098.0806 277.7484 0007444 119.0301 241.1649 14.69624610128446
TISAT-1
1 36799U 10035E   11167.93401387  .00000605  00000-0  85899-4 0  9583
2 36799 098.1021 236.1821 0013888 279.2841 080.6779 14.80580157 50271
AO-16
1 20439U 90005D   11168.02203326  .00000043  00000-0  31752-4 0  2102
2 20439 098.3846 117.6454 0011005 159.2587 200.9044 14.31924629117593
RAX
1 37223U 0        11152.36844328  .00000635  00000-0  96781-4 0 01738
2 37223 071.9713 073.6151 0021634 311.5989 048.3343 14.77415682028541
OOREOS
1 37224U 10062C   11153.29456974  .00000492  00000-0  77478-4 0 01796
2 37224 071.9726 071.8135 0020315 307.7637 052.1684 14.77036357028673
FO-69
1 37227U 0        11167.24478769  .00000183  00000-0  34117-4 0 00560
2 37227 071.9713 041.3462 0018601 281.5288 078.3784 14.76598248009180
NANOSALD
1 37361U 0        11164.26133611  .00181075  00000-0  13910-1 0 02389
2 37361 071.9479 042.9478 0032007 135.3604 224.9404 15.00358219021537
FO-70
1 37380U 0        11167.25830072  .00000142  00000-0  28474-4 0 01925
2 37380 071.9740 041.4222 0019070 279.1649 080.7346 14.76364371030723
RESURS
1 25394U 98043A   11167.12384755 -.00000008  00000-0  13937-4 0  8218
2 25394 098.3008 170.2057 0000431 210.2867 149.8288 14.24234742672153
NOAA-10
1 16969U 86073A   11167.15841516  .00000045  00000-0  35952-4 0  5344
2 16969 098.6174 196.9599 0011490 226.0351 133.9861 14.27465153287501
NOAA-11
1 19531U 88089A   11167.21046906  .00000159  00000-0  10449-3 0  5358
2 19531 098.7523 254.6928 0010890 187.7320 172.3664 14.14918875172611
OKEAN-4
1 23317U 94066A   11167.21984637  .00000445  00000-0  51396-4 0  5848
2 23317 082.5401 014.0426 0023454 119.2514 241.1050 14.83086634900405
NOAA-18
1 28654U 05018A   11167.24940909 -.00000042  00000-0  15364-5 0  8037
2 28654 098.9947 118.3940 0015128 105.4706 254.8139 14.11483491312799
NOAA-15
1 25338U 98030A   11167.25229131  .00000067  00000-0  47221-4 0  8534
2 25338 098.6528 153.4065 0011733 094.7631 265.4866 14.24923353680591
NOAA-17
1 27453U 02032A   11167.26299116  .00000134  00000-0  76054-4 0  3235
2 27453 098.3787 207.0162 0012253 147.9734 212.2185 14.24282608466522
NOAA-16
1 26536U 00055A   11167.29783271  .00000033  00000-0  42684-4 0  3355
2 26536 099.1389 197.8217 0011103 039.3524 320.8490 14.12623912553235
NOAA-19
1 33591U 09005A   11167.31728311  .00000383  00000-0  23678-3 0  9945
2 33591 098.8257 107.4859 0013990 342.6024 017.4674 14.11176649121260
NOAA-14
1 23455U 94089A   11167.46950179  .00000040  00000-0  44393-4 0  5184
2 23455 098.8521 250.1121 0008608 284.9152 075.1068 14.13822522848972
NOAA-12
1 21263U 91032A   11167.52517753  .00000077  00000-0  51025-4 0   329
2 21263 098.7471 185.3720 0012176 184.4243 175.6831 14.25718525 44314
MET-2/21
1 22782U 93055A   11167.82259757 -.00000000  00000-0 -13904-4 0  1236
2 22782 082.5467 323.1653 0024015 099.4695 260.9191 13.83658802898504
MET-3/5
1 21655U 91056A   11167.83004627  .00000051  00000-0  10000-3 0  1369
2 21655 082.5583 051.0291 0013856 152.7327 207.4493 13.17027428953674
OKEAN-0
1 25860U 99039A   11167.95808116  .00000169  00000-0  33191-4 0  3356
2 25860 097.8846 134.4088 0001518 038.3597 321.7717 14.73794058640627
FENGYUN1
1 25730U 99025A   11167.95824282  .00000576  00000-0  35901-3 0  3508
2 25730 098.8171 129.1594 0023947 318.3411 041.5934 14.08632226623034
CAPE1
1 31130U 07012P   11166.98838260  .00000345  00000-0  89582-4 0  2000
2 31130 097.8970 191.0505 0102096 184.4270 175.6043 14.52402969220467
HUBBLE
1 20580U 90037B   11167.05457208  .00000742  00000-0  43483-4 0  7819
2 20580 028.4720 023.8497 0003427 111.2522 248.8269 15.01392892959487
CP6
1 35004U 09028D   11167.16137849  .00082638  00000-0  58131-3 0  6564
2 35004 040.4585 139.2318 0021415 231.1528 128.7282 15.72749584117351
AAUSAT2
1 32788U 08021F   11167.16214418  .00001004  00000-0  13099-3 0    49
2 32788 097.8488 231.2219 0015242 175.5762 184.5569 14.82635268169426
DO-64
1 32789U 08021G   11167.17207721  .00001314  00000-0  16747-3 0   205
2 32789 097.8584 232.2334 0015499 173.4584 186.6801 14.83110635169436
PHARMSAT
1 35002U 09028B   11167.18622269  .00008549  00000-0  15861-3 0  5740
2 35002 040.4683 176.5813 0023893 212.4342 147.5001 15.48659321116955
COMPASS
1 32787U 08021E   11167.19832111  .00000476  00000-0  65880-4 0   135
2 32787 097.8476 231.0336 0015416 175.3514 184.7891 14.82444919169416
CO-66
1 32791U 08021J   11167.21477042  .00000792  00000-0  10590-3 0    61
2 32791 097.8497 230.9919 0016136 173.9682 186.1759 14.82135833169364
HAWKSAT1
1 35003U 09028C   11167.32610145  .00050835  00000-0  47983-3 0  6552
2 35003 040.4519 146.9522 0021704 232.8059 127.1285 15.65747541117299
CO-58
1 28895U 05043F   11167.65410367  .00000289  00000-0  69390-4 0  9004
2 28895 097.9675 044.0646 0017082 220.2169 139.7777 14.60116529300167
METEOR-M
1 35865U 09049A   11167.65873645  .00000176  00000-0  10000-3 0  4644
2 35865 098.7059 222.7943 0003437 038.9059 321.2325 14.21839656 90515
FALCON
1 30776U 07006E   11167.84432077  .00001235  00000-0  89004-4 0  1085
2 30776 035.4354 349.0643 0000784 013.6964 346.3774 15.04677837234995
RS-38
1 35869U 09049E   11167.86996656  .00000177  00000-0  10000-3 0  4583
2 35869 098.7025 223.0389 0005557 038.6416 321.5144 14.22014018 90553
RS-30
1 32953U 08025A   11167.90605192  .00000010  00000-0  00000 0 0  8264
2 32953 082.5006 162.8974 0019992 031.3830 328.8440 12.43013620139059
TACSAT-3
1 35001U 09028A   11167.92851904  .00009993  00000-0  18197-3 0  6190
2 35001 040.4524 174.3256 0022662 211.0016 148.9466 15.49088866117043
MAST
1 31126U 07012K   11167.96687905  .00000184  00000-0  51518-4 0  1853
2 31126 097.8948 195.2049 0094949 170.6070 189.6932 14.53757508221059
ISS
1 25544U 98067A   11168.09994693 -.00007392  00000-0 -69523-4 0  5499
2 25544 051.6453 161.1888 0013916 293.6664 149.7962 15.64386723720894
/EX



From ray.hoad at mypbmail.com  Thu Jun 23 20:05:33 2011
From: ray.hoad at mypbmail.com (Ray Hoad)
Date: Thu, 23 Jun 2011 22:05:33 -0500
Subject: [keps]  orb11174.amsat
Message-ID: <B0CD5FF3438349D6B5804C74C8F1B3CD@SPINMOD1>

SB KEPS @ AMSAT  $ORB11174.O
Orbital Elements  11174.OSCAR

HR AMSAT ORBITAL ELEMENTS FOR OSCAR SATELLITES
FROM WA5QGD FORT WORTH,TX June 23, 2011
Send Subscribe/unsubscribe to KEPS at http://www.amsat.org/mailman/listinfo/keps
BID: ORB11174.O
TO ALL RADIO AMATEURS BT

